NORAD_CAT_ID,OBJECT_NAME,OBJECT_TYPE,EPOCH,MEAN_MOTION,ECCENTRICITY,INCLINATION,RA_OF_ASC_NODE,ARG_OF_PERICENTER,MEAN_ANOMALY,BSTAR,MEAN_MOTION_DOT,MEAN_MOTION_DDOT,TLE_LINE0,TLE_LINE1,TLE_LINE2,SEMIMAJOR_AXIS,PERIOD,APOGEE,PERIGEE,DECAYED
55783.0,STARLINK-5825,PAYLOAD,2023-10-25 05:23:46,14.98331596,0.000246,70.0009,229.2977,265.4926,94.5952,0.00019392,2.222e-05,0.0,0 STARLINK-5825,1 55783U 23028AU  23298.22484177  .00002222  00000-0  19392-3 0  9997,2 55783  70.0009 229.2977 0002460 265.4926  94.5952 14.98331596 37238,6950.188,96.107,573.763,570.343,0.0
55783.0,STARLINK-5825,PAYLOAD,2023-10-25 21:25:07,14.98331882,0.000244,70.0011,227.6153,272.7303,87.3577,-1.9961e-05,-3.31e-06,0.0,0 STARLINK-5825,1 55783U 23028AU  23298.89244757 -.00000331  00000-0 -19961-4 0  9992,2 55783  70.0011 227.6153 0002440 272.7303  87.3577 14.98331882 37339,6950.187,96.107,573.748,570.356,0.0
55783.0,STARLINK-5825,PAYLOAD,2023-10-26 05:25:47,14.98338235,0.0002239,70.0008,226.7729,277.2355,82.8549,5.7363e-05,5.92e-06,0.0,0 STARLINK-5825,1 55783U 23028AU  23299.22624204  .00000592  00000-0  57363-4 0  9994,2 55783  70.0008 226.7729 0002239 277.2355  82.8549 14.98338235 37380,6950.167,96.106,573.589,570.476,0.0
55783.0,STARLINK-5825,PAYLOAD,2023-10-26 21:27:07,14.98340323,0.0002115,70.0016,225.0907,267.0103,93.0814,-5.7104e-05,-7.74e-06,0.0,0 STARLINK-5825,1 55783U 23028AU  23299.89384058 -.00000774  00000-0 -57104-4 0  9994,2 55783  70.0016 225.0907 0002115 267.0103  93.0814 14.98340323 37481,6950.161,96.106,573.496,570.556,0.0
55783.0,STARLINK-5825,PAYLOAD,2023-10-27 03:51:39,14.98364311,0.0002182,70.001,224.418,265.1642,94.9268,-0.00029679,-3.635e-05,0.0,0 STARLINK-5825,1 55783U 23028AU  23300.16086919 -.00003635  00000-0 -29679-3 0  9996,2 55783  70.0010 224.4180 0002182 265.1642  94.9268 14.98364311 37523,6950.087,96.105,573.468,570.435,0.0
55783.0,STARLINK-5825,PAYLOAD,2023-10-27 11:52:19,14.98352395,0.0002787,70.0007,223.5757,268.8505,91.2335,-0.00037071,-4.516e-05,0.0,0 STARLINK-5825,1 55783U 23028AU  23300.49467502 -.00004516  00000-0 -37071-3 0  9997,2 55783  70.0007 223.5757 0002787 268.8505  91.2335 14.98352395 37577,6950.124,96.106,573.926,570.052,0.0
55783.0,STARLINK-5825,PAYLOAD,2023-10-27 18:16:53,14.98315917,0.0002797,70.0006,222.9022,274.4165,85.6674,-0.00014322,-1.801e-05,0.0,0 STARLINK-5825,1 55783U 23028AU  23300.76173413 -.00001801  00000-0 -14322-3 0  9990,2 55783  70.0006 222.9022 0002797 274.4165  85.6674 14.98315917 37617,6950.236,96.108,574.045,570.157,0.0
55783.0,STARLINK-5825,PAYLOAD,2023-10-27 21:29:09,14.9832361,0.0002634,70.0009,222.5662,272.5983,87.4875,-0.00019758,-2.449e-05,0.0,0 STARLINK-5825,1 55783U 23028AU  23300.89525220 -.00002449  00000-0 -19758-3 0  9998,2 55783  70.0009 222.5662 0002634 272.5983  87.4875 14.98323610 37637,6950.213,96.107,573.908,570.247,0.0
55783.0,STARLINK-5825,PAYLOAD,2023-10-28 00:41:25,14.98327732,0.0002631,70.0004,222.2288,266.1999,93.8859,-1.8269e-05,-3.11e-06,0.0,0 STARLINK-5825,1 55783U 23028AU  23301.02876440 -.00000311  00000-0 -18269-4 0  9990,2 55783  70.0004 222.2288 0002631 266.1999  93.8859 14.98327732 37650,6950.2,96.107,573.894,570.236,0.0
55783.0,STARLINK-5825,PAYLOAD,2023-10-28 11:54:21,14.98340998,0.0002666,70.0008,221.0513,273.8593,86.2261,-0.00035756,-4.358e-05,0.0,0 STARLINK-5825,1 55783U 23028AU  23301.49608473 -.00004358  00000-0 -35756-3 0  9994,2 55783  70.0008 221.0513 0002666 273.8593  86.2261 14.98340998 37725,6950.159,96.106,573.877,570.171,0.0
55783.0,STARLINK-5825,PAYLOAD,2023-10-28 21:31:10,14.98330808,0.0002651,70.0009,220.0417,266.8218,93.2638,-0.00012245,-1.554e-05,0.0,0 STARLINK-5825,1 55783U 23028AU  23301.89664774 -.00001554  00000-0 -12245-3 0  9997,2 55783  70.0009 220.0417 0002651 266.8218  93.2638 14.98330808 37789,6950.19,96.107,573.898,570.213,0.0
55783.0,STARLINK-5825,PAYLOAD,2023-10-29 03:55:41,14.98339057,0.0002465,70.0009,219.3683,267.7826,92.3051,-2.409e-05,-3.8e-06,0.0,0 STARLINK-5825,1 55783U 23028AU  23302.16367929 -.00000380  00000-0 -24090-4 0  9998,2 55783  70.0009 219.3683 0002465 267.7826  92.3051 14.98339057 37822,6950.165,96.106,573.743,570.317,0.0
55783.0,STARLINK-5825,PAYLOAD,2023-10-29 05:31:50,14.98336266,0.000226,70.0013,219.1999,256.2971,103.7937,-2.5695e-06,-1.24e-06,0.0,0 STARLINK-5825,1 55783U 23028AU  23302.23044009 -.00000124  00000-0 -25695-5 0  9996,2 55783  70.0013 219.1999 0002260 256.2971 103.7937 14.98336266 37832,6950.174,96.107,573.609,570.468,0.0
55783.0,STARLINK-5825,PAYLOAD,2023-10-29 18:20:55,14.98302125,0.0002177,70.0016,217.8538,266.6221,93.4689,0.00024863,2.873e-05,0.0,0 STARLINK-5825,1 55783U 23028AU  23302.76453668  .00002873  00000-0  24863-3 0  9994,2 55783  70.0016 217.8538 0002177 266.6221  93.4689 14.98302125 37914,6950.279,96.109,573.657,570.631,0.0
55783.0,STARLINK-5825,PAYLOAD,2023-10-29 21:33:11,14.98316904,0.0002564,70.0011,217.5171,264.5681,95.5186,2.8254e-05,2.44e-06,0.0,0 STARLINK-5825,1 55783U 23028AU  23302.89805269  .00000244  00000-0  28254-4 0  9995,2 55783  70.0011 217.5171 0002564 264.5681  95.5186 14.98316904 37933,6950.233,96.108,573.88,570.316,0.0
55783.0,STARLINK-5825,PAYLOAD,2023-10-30 03:57:43,14.98319517,0.0002367,70.0017,216.8448,259.3771,100.7121,7.4898e-05,8.01e-06,0.0,0 STARLINK-5825,1 55783U 23028AU  23303.16509166  .00000801  00000-0  74898-4 0  9997,2 55783  70.0017 216.8448 0002367 259.3771 100.7121 14.98319517 37976,6950.225,96.108,573.735,570.445,0.0
55783.0,STARLINK-5825,PAYLOAD,2023-10-30 21:35:12,14.98325588,0.0002657,70.0007,214.9919,270.3695,89.716,6.8433e-06,-1.1e-07,0.0,0 STARLINK-5825,1 55783U 23028AU  23303.89945157 -.00000011  00000-0  68433-5 0  9994,2 55783  70.0007 214.9919 0002657 270.3695  89.7160 14.98325588 38084,6950.207,96.107,573.918,570.225,0.0
55783.0,STARLINK-5825,PAYLOAD,2023-10-31 03:59:44,14.98331932,0.0002476,70.001,214.3188,269.0093,91.0782,1.1906e-05,4.9e-07,0.0,0 STARLINK-5825,1 55783U 23028AU  23304.16648783  .00000049  00000-0  11906-4 0  9992,2 55783  70.0010 214.3188 0002476 269.0093  91.0782 14.98331932 38127,6950.187,96.107,573.773,570.331,0.0
55783.0,STARLINK-5825,PAYLOAD,2023-10-31 12:00:24,14.98335245,0.000252,70.0012,213.4767,269.435,90.6521,-3.4707e-05,-5.07e-06,0.0,0 STARLINK-5825,1 55783U 23028AU  23304.50028578 -.00000507  00000-0 -34707-4 0  9999,2 55783  70.0012 213.4767 0002520 269.4350  90.6521 14.98335245 38174,6950.177,96.107,573.793,570.29,0.0
55783.0,STARLINK-5825,PAYLOAD,2023-10-31 21:37:13,14.98329352,0.0002665,70.0012,212.4667,268.4757,91.6096,0.00012288,1.373e-05,0.0,0 STARLINK-5825,1 55783U 23028AU  23304.90084506  .00001373  00000-0  12288-3 0  9995,2 55783  70.0012 212.4667 0002665 268.4757  91.6096 14.98329352 38239,6950.195,96.107,573.912,570.208,0.0
55783.0,STARLINK-5825,PAYLOAD,2023-11-01 04:01:44,14.98346287,0.000232,70.0012,211.7942,264.1255,95.964,-3.9625e-05,-5.66e-06,0.0,0 STARLINK-5825,1 55783U 23028AU  23305.16787779 -.00000566  00000-0 -39625-4 0  9996,2 55783  70.0012 211.7942 0002320 264.1255  95.9640 14.98346287 38273,6950.143,96.106,573.62,570.395,0.0
55783.0,STARLINK-5825,PAYLOAD,2023-11-01 20:03:05,14.98329183,0.0002604,70.0014,210.112,271.8172,88.2688,3.8261e-05,3.64e-06,0.0,0 STARLINK-5825,1 55783U 23028AU  23305.83548530  .00000364  00000-0  38261-4 0  9999,2 55783  70.0014 210.1120 0002604 271.8172  88.2688 14.98329183 38378,6950.195,96.107,573.87,570.251,0.0
55783.0,STARLINK-5825,PAYLOAD,2023-11-01 21:39:13,14.98329718,0.0002606,70.0016,209.9437,271.9936,88.0924,3.8179e-05,3.63e-06,0.0,0 STARLINK-5825,1 55783U 23028AU  23305.90224485  .00000363  00000-0  38179-4 0  9994,2 55783  70.0016 209.9437 0002606 271.9936  88.0924 14.98329718 38384,6950.194,96.107,573.87,570.248,0.0
55783.0,STARLINK-5825,PAYLOAD,2023-11-02 10:28:18,14.98321194,0.0002395,70.0017,208.5978,266.9522,93.1363,0.00011498,1.279e-05,0.0,0 STARLINK-5825,1 55783U 23028AU  23306.43632772  .00001279  00000-0  11498-3 0  9996,2 55783  70.0017 208.5978 0002395 266.9522  93.1363 14.98321194 38463,6950.22,96.108,573.75,570.421,0.0
55783.0,STARLINK-5825,PAYLOAD,2023-11-02 20:05:06,14.98331298,0.0002601,70.0018,207.5874,271.9228,88.1634,-5.1928e-05,-7.12e-06,0.0,0 STARLINK-5825,1 55783U 23028AU  23306.83688390 -.00000712  00000-0 -51928-4 0  9993,2 55783  70.0018 207.5874 0002601 271.9228  88.1634 14.98331298 38525,6950.189,96.107,573.862,570.246,0.0
55783.0,STARLINK-5825,PAYLOAD,2023-11-02 21:41:14,14.98332221,0.0002547,70.0016,207.4194,271.3598,88.7269,-5.5424e-05,-7.54e-06,0.0,0 STARLINK-5825,1 55783U 23028AU  23306.90364326 -.00000754  00000-0 -55424-4 0  9992,2 55783  70.0016 207.4194 0002547 271.3598  88.7269 14.98332221 38538,6950.186,96.107,573.821,570.281,0.0
55783.0,STARLINK-5825,PAYLOAD,2023-11-03 10:30:18,14.98364594,0.0002584,70.0021,206.0718,275.8855,84.2009,-0.00059055,-7.138e-05,0.0,0 STARLINK-5825,1 55783U 23028AU  23307.43771273 -.00007138  00000-0 -59055-3 0  9990,2 55783  70.0021 206.0718 0002584 275.8855  84.2009 14.98364594 38617,6950.086,96.105,573.747,570.155,0.0
55783.0,STARLINK-5825,PAYLOAD,2023-11-03 18:30:59,14.98329809,0.0002375,70.0015,205.2309,259.4467,100.6424,-4.3717e-06,-1.45e-06,0.0,0 STARLINK-5825,1 55783U 23028AU  23307.77152073 -.00000145  00000-0 -43717-5 0  9999,2 55783  70.0015 205.2309 0002375 259.4467 100.6424 14.98329809 38661,6950.193,96.107,573.709,570.408,0.0
55783.0,STARLINK-5825,PAYLOAD,2023-11-03 21:43:15,14.98302218,0.0002492,70.0018,204.8948,264.659,95.4284,0.00042354,4.961e-05,0.0,0 STARLINK-5825,1 55783U 23028AU  23307.90504504  .00004961  00000-0  42354-3 0  9996,2 55783  70.0018 204.8948 0002492 264.6590  95.4284 14.98302218 38685,6950.279,96.109,573.876,570.412,0.0
55783.0,STARLINK-5825,PAYLOAD,2023-11-04 10:32:19,14.98362141,0.0002413,70.0017,203.546,279.8697,80.219,-0.00070281,-8.475e-05,0.0,0 STARLINK-5825,1 55783U 23028AU  23308.43911652 -.00008475  00000-0 -70281-3 0  9997,2 55783  70.0017 203.5460 0002413 279.8697  80.2190 14.98362141 38766,6950.093,96.105,573.636,570.281,0.0
